{
  "type": "FeatureCollection",
  "features": [
    {
      "type": "Feature",
      "properties": {
        "norad_id": 29894,
        "name": "FENGYUN 1C DEB",
        "group": "fengyun-1c-debris",
        "lat": -75.54471062651687,
        "lon": 81.9896430084147,
        "alt_km": 1033.1560111754134,
        "timestamp": "2025-12-13T05:42:57.831169+00:00",
        "meta_object_name": "FENGYUN 1C DEB",
        "meta_object_id": "1999-025GQ",
        "meta_epoch": "2025-12-12T02:25:00.357312",
        "meta_mean_motion": 13.80971473,
        "meta_eccentricity": 0.01685118,
        "meta_inclination": 99.4859,
        "meta_ra_of_asc_node": 40.4134,
        "meta_arg_of_pericenter": 46.7362,
        "meta_mean_anomaly": 343.9378,
        "meta_ephemeris_type": 0,
        "meta_classification_type": "U",
        "meta_norad_cat_id": 29894,
        "meta_element_set_no": 999,
        "meta_rev_at_epoch": 95068,
        "meta_bstar": 0.00070454627,
        "meta_mean_motion_dot": 7.83e-06,
        "meta_mean_motion_ddot": 0,
        "tle_line1": "1 29894U 99025GQ  25346.10069858  .00000783  00000+0  70455-3 0  9995",
        "tle_line2": "2 29894  99.4859  40.4134 0168511  46.7362 343.9378 13.80971473950682"
      },
      "geometry": {
        "type": "Point",
        "coordinates": [
          81.9896430084147,
          -75.54471062651687
        ]
      }
    },
    {
      "type": "Feature",
      "properties": {
        "norad_id": 29895,
        "name": "FENGYUN 1C DEB",
        "group": "fengyun-1c-debris",
        "lat": 72.14169206959629,
        "lon": 62.915434455256104,
        "alt_km": 862.2166939027502,
        "timestamp": "2025-12-13T05:42:57.831179+00:00",
        "meta_object_name": "FENGYUN 1C DEB",
        "meta_object_id": "1999-025GR",
        "meta_epoch": "2025-12-12T05:46:54.758784",
        "meta_mean_motion": 14.08225789,
        "meta_eccentricity": 0.02993584,
        "meta_inclination": 99.8843,
        "meta_ra_of_asc_node": 94.5851,
        "meta_arg_of_pericenter": 345.0725,
        "meta_mean_anomaly": 73.5603,
        "meta_ephemeris_type": 0,
        "meta_classification_type": "U",
        "meta_norad_cat_id": 29895,
        "meta_element_set_no": 999,
        "meta_rev_at_epoch": 95517,
        "meta_bstar": 0.0031214266,
        "meta_mean_motion_dot": 7.999e-05,
        "meta_mean_motion_ddot": 0,
        "tle_line1": "1 29895U 99025GR  25346.24091156  .00007999  00000+0  31214-2 0  9992",
        "tle_line2": "2 29895  99.8843  94.5851 0299358 345.0725  73.5603 14.08225789955177"
      },
      "geometry": {
        "type": "Point",
        "coordinates": [
          62.915434455256104,
          72.14169206959629
        ]
      }
    },
    {
      "type": "Feature",
      "properties": {
        "norad_id": 29896,
        "name": "FENGYUN 1C DEB",
        "group": "fengyun-1c-debris",
        "lat": 59.18525698361561,
        "lon": -137.21129717877133,
        "alt_km": 873.0660070426829,
        "timestamp": "2025-12-13T05:42:57.831190+00:00",
        "meta_object_name": "FENGYUN 1C DEB",
        "meta_object_id": "1999-025GS",
        "meta_epoch": "2025-12-11T04:47:40.703424",
        "meta_mean_motion": 13.65364041,
        "meta_eccentricity": 0.02396393,
        "meta_inclination": 99.4223,
        "meta_ra_of_asc_node": 236.9714,
        "meta_arg_of_pericenter": 105.8787,
        "meta_mean_anomaly": 22.3464,
        "meta_ephemeris_type": 0,
        "meta_classification_type": "U",
        "meta_norad_cat_id": 29896,
        "meta_element_set_no": 999,
        "meta_rev_at_epoch": 94021,
        "meta_bstar": 0.00074026628,
        "meta_mean_motion_dot": 6.92e-06,
        "meta_mean_motion_ddot": 0,
        "tle_line1": "1 29896U 99025GS  25345.19977666  .00000692  00000+0  74027-3 0  9998",
        "tle_line2": "2 29896  99.4223 236.9714 0239639 105.8787  22.3464 13.65364041940215"
      },
      "geometry": {
        "type": "Point",
        "coordinates": [
          -137.21129717877133,
          59.18525698361561
        ]
      }
    },
    {
      "type": "Feature",
      "properties": {
        "norad_id": 29897,
        "name": "FENGYUN 1C DEB",
        "group": "fengyun-1c-debris",
        "lat": -32.91030747954417,
        "lon": -142.91192122523086,
        "alt_km": 1269.036087757696,
        "timestamp": "2025-12-13T05:42:57.831200+00:00",
        "meta_object_name": "FENGYUN 1C DEB",
        "meta_object_id": "1999-025GT",
        "meta_epoch": "2025-12-12T02:19:10.491744",
        "meta_mean_motion": 13.5717913,
        "meta_eccentricity": 0.02964693,
        "meta_inclination": 98.6293,
        "meta_ra_of_asc_node": 210.4449,
        "meta_arg_of_pericenter": 140.4368,
        "meta_mean_anomaly": 12.5553,
        "meta_ephemeris_type": 0,
        "meta_classification_type": "U",
        "meta_norad_cat_id": 29897,
        "meta_element_set_no": 999,
        "meta_rev_at_epoch": 92931,
        "meta_bstar": 0.0027223308,
        "meta_mean_motion_dot": 2.547e-05,
        "meta_mean_motion_ddot": 0,
        "tle_line1": "1 29897U 99025GT  25346.09664921  .00002547  00000+0  27223-2 0  9992",
        "tle_line2": "2 29897  98.6293 210.4449 0296469 140.4368  12.5553 13.57179130929312"
      },
      "geometry": {
        "type": "Point",
        "coordinates": [
          -142.91192122523086,
          -32.91030747954417
        ]
      }
    },
    {
      "type": "Feature",
      "properties": {
        "norad_id": 29898,
        "name": "FENGYUN 1C DEB",
        "group": "fengyun-1c-debris",
        "lat": 33.3419427926003,
        "lon": -25.942053069884384,
        "alt_km": 1277.2240603260198,
        "timestamp": "2025-12-13T05:42:57.831211+00:00",
        "meta_object_name": "FENGYUN 1C DEB",
        "meta_object_id": "1999-025GU",
        "meta_epoch": "2025-12-11T22:09:15.907392",
        "meta_mean_motion": 13.70301991,
        "meta_eccentricity": 0.0427187,
        "meta_inclination": 98.2233,
        "meta_ra_of_asc_node": 338.3883,
        "meta_arg_of_pericenter": 191.5072,
        "meta_mean_anomaly": 200.6859,
        "meta_ephemeris_type": 0,
        "meta_classification_type": "U",
        "meta_norad_cat_id": 29898,
        "meta_element_set_no": 999,
        "meta_rev_at_epoch": 93150,
        "meta_bstar": 0.0026442,
        "meta_mean_motion_dot": 4.424e-05,
        "meta_mean_motion_ddot": 0,
        "tle_line1": "1 29898U 99025GU  25345.92310078  .00004424  00000+0  26442-2 0  9993",
        "tle_line2": "2 29898  98.2233 338.3883 0427187 191.5072 200.6859 13.70301991931507"
      },
      "geometry": {
        "type": "Point",
        "coordinates": [
          -25.942053069884384,
          33.3419427926003
        ]
      }
    },
    {
      "type": "Feature",
      "properties": {
        "norad_id": 29899,
        "name": "FENGYUN 1C DEB",
        "group": "fengyun-1c-debris",
        "lat": 18.446635920724106,
        "lon": 139.76310311660964,
        "alt_km": 975.2802459935965,
        "timestamp": "2025-12-13T05:42:57.831222+00:00",
        "meta_object_name": "FENGYUN 1C DEB",
        "meta_object_id": "1999-025GV",
        "meta_epoch": "2025-12-11T21:18:34.844256",
        "meta_mean_motion": 13.37492053,
        "meta_eccentricity": 0.0353615,
        "meta_inclination": 98.6617,
        "meta_ra_of_asc_node": 141.5253,
        "meta_arg_of_pericenter": 81.122,
        "meta_mean_anomaly": 282.9767,
        "meta_ephemeris_type": 0,
        "meta_classification_type": "U",
        "meta_norad_cat_id": 29899,
        "meta_element_set_no": 999,
        "meta_rev_at_epoch": 92073,
        "meta_bstar": 0.00028325,
        "meta_mean_motion_dot": 1.81e-06,
        "meta_mean_motion_ddot": 0,
        "tle_line1": "1 29899U 99025GV  25345.88790329  .00000181  00000+0  28325-3 0  9999",
        "tle_line2": "2 29899  98.6617 141.5253 0353615  81.1220 282.9767 13.37492053920733"
      },
      "geometry": {
        "type": "Point",
        "coordinates": [
          139.76310311660964,
          18.446635920724106
        ]
      }
    },
    {
      "type": "Feature",
      "properties": {
        "norad_id": 29901,
        "name": "FENGYUN 1C DEB",
        "group": "fengyun-1c-debris",
        "lat": -19.811720593722686,
        "lon": -25.186507503043206,
        "alt_km": 1099.754700923857,
        "timestamp": "2025-12-13T05:42:57.831233+00:00",
        "meta_object_name": "FENGYUN 1C DEB",
        "meta_object_id": "1999-025GX",
        "meta_epoch": "2025-12-11T11:35:25.443168",
        "meta_mean_motion": 13.33252714,
        "meta_eccentricity": 0.03791635,
        "meta_inclination": 98.7443,
        "meta_ra_of_asc_node": 156.4905,
        "meta_arg_of_pericenter": 288.4509,
        "meta_mean_anomaly": 135.5469,
        "meta_ephemeris_type": 0,
        "meta_classification_type": "U",
        "meta_norad_cat_id": 29901,
        "meta_element_set_no": 999,
        "meta_rev_at_epoch": 91902,
        "meta_bstar": 0.00061576515,
        "meta_mean_motion_dot": 4.15e-06,
        "meta_mean_motion_ddot": 0,
        "tle_line1": "1 29901U 99025GX  25345.48293337  .00000415  00000+0  61577-3 0  9992",
        "tle_line2": "2 29901  98.7443 156.4905 0379163 288.4509 135.5469 13.33252714919028"
      },
      "geometry": {
        "type": "Point",
        "coordinates": [
          -25.186507503043206,
          -19.811720593722686
        ]
      }
    }
  ]
}